{
  "fetched_at": "2026-06-29T02:15:06.524234+00:00",
  "satellites": {
    "57166": {
      "name": "Meteor M2-3",
      "tle_line1": "1 57166U 23091A   26179.62148499  .00000000  00000+0  18642-4 0  9992",
      "tle_line2": "2 57166  98.6078 234.3657 0004875 127.7726 232.3895 14.24047672156147"
    },
    "59051": {
      "name": "Meteor M2-4",
      "tle_line1": "1 59051U 24039A   26179.64918106 -.00000002  00000+0  18555-4 0  9998",
      "tle_line2": "2 59051  98.7015 138.8033 0007869 130.3004 229.8863 14.22430621120892"
    },
    "38771": {
      "name": "MetOp-B",
      "tle_line1": "1 38771U 12049A   26179.59296600  .00000100  00000+0  65770-4 0  9993",
      "tle_line2": "2 38771  98.6499 230.8644 0001525 344.3768  15.7362 14.21442271714888"
    },
    "43689": {
      "name": "MetOp-C",
      "tle_line1": "1 43689U 18087A   26179.61156967  .00000100  00000+0  65390-4 0  9997",
      "tle_line2": "2 43689  98.6640 239.0062 0002075 115.2193 244.9200 14.21515006396456"
    },
    "60543": {
      "name": "Arctic Weather Satellite",
      "tle_line1": "1 60543U 24149CD  26179.43739222  .00000760  00000+0  84836-4 0  9990",
      "tle_line2": "2 60543  97.6799 249.5813 0003641  83.0946 277.0687 14.89799435100976"
    }
  }
}